#aV2024  2 17  0  0  0.00000000     288 DD+AD WGS84 FIT  NGA
## 2301 518400.00000000   300.00000000 60357 0.0000000000000
+   32     1  2  3  4  5  6  7  8  9 10 11 12 13 14 15 16 17
+         18 19 20 21 22 23 24 25 26 27 28 29 30 31 32  0  0
+          0  0  0  0  0  0  0  0  0  0  0  0  0  0  0  0  0
+          0  0  0  0  0  0  0  0  0  0  0  0  0  0  0  0  0
+          0  0  0  0  0  0  0  0  0  0  0  0  0  0  0  0  0
++         2  2  2  2  2  2  2  2  2  2  2  2  2  2  2  2  2
++         2  2  2  2  2  2  2  2  2  2  2  2  2  2  2  0  0
++         0  0  0  0  0  0  0  0  0  0  0  0  0  0  0  0  0
++         0  0  0  0  0  0  0  0  0  0  0  0  0  0  0  0  0
++         0  0  0  0  0  0  0  0  0  0  0  0  0  0  0  0  0
%c cc cc ccc ccc cccc cccc cccc cccc ccccc ccccc ccccc ccccc
%c cc cc ccc ccc cccc cccc cccc cccc ccccc ccccc ccccc ccccc
%f  0.0000000  0.000000000  0.00000000000  0.000000000000000
%f  0.0000000  0.000000000  0.00000000000  0.000000000000000
%i    0    0    0    0      0      0      0      0         0
%i    0    0    0    0      0      0      0      0         0
/*      NGA, ST. LOUIS,MO.                                  
/*   EPHEMERIS COMPUTED FROM 2 DAYS OF DATA                 
/*   EPOCHA v9 SMOOTHER                                     
/*   G2296 IERS2010 SATIGS SATAPC                           
*  2024  2 17  7 30  0.00000000
P  1 -12058.660303  21672.549030   8696.182348    169.887315                    
V  1   1188.534479 -11704.429364  29983.880274      0.015630                    
P  2 -14263.439110  15430.887203  16584.482812   -484.160756                    
V  2   1743.371334 -20221.797649  21192.478569      0.059235                    
P  3 -21842.680950  12145.926807  -8957.618159    198.441800                    
V  3 -11313.632384   1010.594252  29541.918032      0.241009                    
P  4 -12397.395130   8838.658071 -21753.331296    293.732497                    
V  4 -18878.752752 -20188.422122   2422.624466      0.093689                    
P  5  25742.104725  -5632.040947  -3866.830819   -162.126440                    
V  5  -3698.966675   3744.142340 -31391.619607     -0.013876                    
P  6   7675.454154  17505.336924 -18321.855946    403.827109                    
V  6  -7283.518094  22248.661928  18240.760936     -0.149938                    
P  7  -4600.206038  25781.510330   2897.112489    -63.912609                    
V  7  -4182.899643   2156.338757 -31548.498835     -0.090104                    
P  8 -18611.375856   1079.497862  18978.021739   -167.435883                    
V  8 -16897.162239 -17340.485507 -15084.704644     -0.018700                    
P  9    200.525604  18569.987658 -19048.982305     94.934210                    
V  9 -18487.376398 -15438.963754 -15366.441891      0.127346                    
P 10  -9315.806393 -12494.345942  21758.964677      0.807281                    
V 10  25981.951676  -7441.150623   6603.636866      0.012441                    
P 11  13948.178489   5868.025846 -21804.109975   -578.581078                    
V 11  -8385.756988  26429.053007   1700.382683     -0.127546                    
P 12  22788.605464 -10722.427048  -8615.335750   -478.792907                    
V 12  10853.117155    385.754848  29267.167857     -0.037065                    
P 13  19911.516617   9438.897533  14785.687321    626.287339                    
V 13  10148.138644  16181.995103 -23456.152976      0.035019                    
P 14   4936.124878  14776.368324  21539.805582    327.909394                    
V 14 -26530.780624   6623.434311   1349.758898      0.099671                    
P 15  18522.238380  -3266.487621  18341.095720    128.561121                    
V 15  18593.706560  15788.004456 -15349.748265      0.039441                    
P 16 -25285.978251  -1746.650031  -9016.411071   -360.842998                    
V 16  10289.684587  -4018.334660 -28716.805257      0.083596                    
P 17  10638.539655  22233.673003  10115.565221    716.721461                    
V 17  -9861.361583  -7632.867114  28488.542310     -0.012281                    
P 18   4664.063219 -25793.756192   3630.149609   -557.379376                    
V 18   3653.594401  -3762.666148 -31736.677181     -0.082840                    
P 19  16826.924067  20802.768422    253.872805    441.821150                    
V 19  -2068.885950    992.682091  31711.775144      0.052952                    
P 20  21358.277605   2061.709580 -15486.717078    387.191491                    
V 20 -16965.557946  10579.726186 -22061.404226     -0.014237                    
P 21 -15414.656324   9448.522540  19586.560512    134.632453                    
V 21   2326.027513 -24123.595056  14782.897675     -0.013703                    
P 22  12552.498049  12161.130515  20344.574871     29.874521                    
V 22 -24376.773968   5531.871530  12274.020950     -0.061935                    
P 23   4679.109671 -15999.637231  20653.943460    157.951762                    
V 23  25284.811798  -6825.857384 -11210.067569      0.081093                    
P 24  14727.451213 -13737.430654  16695.761160   -433.063897                    
V 24   -980.828028  22361.761210  19217.007152     -0.061573                    
P 25  13538.193545 -16134.454425 -16356.134317    488.831505                    
V 25  20063.795106  -3643.661575  20899.718277      0.011418                    
P 26 -19047.935308  -6957.390382 -17480.937236    189.334389                    
V 26  19929.436676  -9205.537858 -17839.008286     -0.040509                    
P 27 -21842.274263 -10934.833112  10667.816464     -4.751791                    
V 27  -8408.330551 -11155.999098 -27504.251258     -0.032913                    
P 28  -7151.140710 -19791.329478 -16227.680270   -133.855479                    
V 28   6330.850126 -19655.144540  21202.296410     -0.128259                    
P 29   2753.604873 -17436.169459 -19863.008040   -606.811725                    
V 29  17300.696135  18229.963765 -13736.343414      0.007762                    
P 30   3144.504615  23316.491992  12188.223992   -431.498550                    
V 30  -6966.830822  14126.424307 -25764.394578      0.049800                    
P 31 -12435.007989 -10713.853487 -21015.918420   -227.794456                    
V 31   8103.894129 -25048.909126   8453.533684     -0.001124                    
P 32 -14698.333497 -21145.296210   7131.285343   -612.059750                    
V 32   7977.644747   4322.164041  29906.504311     -0.019866                    
EOF
